[{"OBJECT_NAME":"STARLINK-1008","OBJECT_ID":"2019-074B","EPOCH":"2026-01-09T12:33:50.460480","MEAN_MOTION":15.06404796,"ECCENTRICITY":0.00014058,"INCLINATION":53.0543,"RA_OF_ASC_NODE":92.2276,"ARG_OF_PERICENTER":92.0207,"MEAN_ANOMALY":268.0943,"EPHEMERIS_TYPE":0,"CLASSIFICATION_TYPE":"U","NORAD_CAT_ID":44714,"ELEMENT_SET_NO":999,"REV_AT_EPOCH":33983,"BSTAR":2.0413284e-5,"MEAN_MOTION_DOT":2.3e-7,"MEAN_MOTION_DDOT":0},{"OBJECT_NAME":"STARLINK-1012","OBJECT_ID":"2019-074F","EPOCH":"2026-01-09T10:26:27.875040","MEAN_MOTION":15.06394504,"ECCENTRICITY":0.00014696,"INCLINATION":53.0553,"RA_OF_ASC_NODE":92.6233,"ARG_OF_PERICENTER":86.4631,"MEAN_ANOMALY":273.6526,"EPHEMERIS_TYPE":0,"CLASSIFICATION_TYPE":"U","NORAD_CAT_ID":44718,"ELEMENT_SET_NO":999,"REV_AT_EPOCH":33981,"BSTAR":6.704235e-5,"MEAN_MOTION_DOT":7.17e-6,"MEAN_MOTION_DDOT":0},{"OBJECT_NAME":"STARLINK-1017","OBJECT_ID":"2019-074L","EPOCH":"2026-01-09T11:56:10.506912","MEAN_MOTION":15.19686096,"ECCENTRICITY":0.00020664,"INCLINATION":53.0511,"RA_OF_ASC_NODE":83.5581,"ARG_OF_PERICENTER":147.0107,"MEAN_ANOMALY":213.1017,"EPHEMERIS_TYPE":0,"CLASSIFICATION_TYPE":"U","NORAD_CAT_ID":44723,"ELEMENT_SET_NO":999,"REV_AT_EPOCH":33995,"BSTAR":0.0011400269,"MEAN_MOTION_DOT":0.00024399,"MEAN_MOTION_DDOT":0},{"OBJECT_NAME":"STARLINK-1019","OBJECT_ID":"2019-074M","EPOCH":"2026-01-09T10:22:03.154080","MEAN_MOTION":15.62928532,"ECCENTRICITY":0.00071647,"INCLINATION":53.0489,"RA_OF_ASC_NODE":70.6777,"ARG_OF_PERICENTER":343.3536,"MEAN_ANOMALY":16.7241,"EPHEMERIS_TYPE":0,"CLASSIFICATION_TYPE":"U","NORAD_CAT_ID":44724,"ELEMENT_SET_NO":999,"REV_AT_EPOCH":34012,"BSTAR":0.001375846,"MEAN_MOTION_DOT":0.00128457,"MEAN_MOTION_DDOT":0},{"OBJECT_NAME":"STARLINK-1020","OBJECT_ID":"2019-074N","EPOCH":"2026-01-09T13:40:11.564256","MEAN_MOTION":15.06399547,"ECCENTRICITY":0.00012042,"INCLINATION":53.0551,"RA_OF_ASC_NODE":112.0205,"ARG_OF_PERICENTER":85.9251,"MEAN_ANOMALY":274.1876,"EPHEMERIS_TYPE":0,"CLASSIFICATION_TYPE":"U","NORAD_CAT_ID":44725,"ELEMENT_SET_NO":999,"REV_AT_EPOCH":33955,"BSTAR":-8.043793e-6,"MEAN_MOTION_DOT":-4.01e-6,"MEAN_MOTION_DDOT":0},{"OBJECT_NAME":"STARLINK-1031","OBJECT_ID":"2019-074Z","EPOCH":"2026-01-09T22:00:01.998720","MEAN_MOTION":15.67343377,"ECCENTRICITY":0.0003231,"INCLINATION":53.0472,"RA_OF_ASC_NODE":54.3514,"ARG_OF_PERICENTER":22.7345,"MEAN_ANOMALY":173.0942,"EPHEMERIS_TYPE":0,"CLASSIFICATION_TYPE":"U","NORAD_CAT_ID":44736,"ELEMENT_SET_NO":999,"REV_AT_EPOCH":594,"BSTAR":0.0013519,"MEAN_MOTION_DOT":0.0015083,"MEAN_MOTION_DDOT":0},{"OBJECT_NAME":"STARLINK-1036","OBJECT_ID":"2019-074AE","EPOCH":"2026-01-09T22:00:01.998720","MEAN_MOTION":15.25746493,"ECCENTRICITY":0.0001262,"INCLINATION":53.0535,"RA_OF_ASC_NODE":109.6644,"ARG_OF_PERICENTER":61.893,"MEAN_ANOMALY":271.7236,"EPHEMERIS_TYPE":0,"CLASSIFICATION_TYPE":"U","NORAD_CAT_ID":44741,"ELEMENT_SET_NO":999,"REV_AT_EPOCH":573,"BSTAR":0.058537,"MEAN_MOTION_DOT":0.01675341,"MEAN_MOTION_DDOT":0},{"OBJECT_NAME":"STARLINK-1039","OBJECT_ID":"2019-074AH","EPOCH":"2026-01-09T14:24:23.695200","MEAN_MOTION":15.16979369,"ECCENTRICITY":0.00025879,"INCLINATION":53.0508,"RA_OF_ASC_NODE":125.6458,"ARG_OF_PERICENTER":50.3075,"MEAN_ANOMALY":309.8146,"EPHEMERIS_TYPE":0,"CLASSIFICATION_TYPE":"U","NORAD_CAT_ID":44744,"ELEMENT_SET_NO":999,"REV_AT_EPOCH":33937,"BSTAR":0.0022268539,"MEAN_MOTION_DOT":0.00044475,"MEAN_MOTION_DDOT":0},{"OBJECT_NAME":"STARLINK-1042","OBJECT_ID":"2019-074AL","EPOCH":"2026-01-09T06:19:55.776864","MEAN_MOTION":15.46642284,"ECCENTRICITY":0.00030029,"INCLINATION":53.0465,"RA_OF_ASC_NODE":19.2155,"ARG_OF_PERICENTER":20.795,"MEAN_ANOMALY":339.3178,"EPHEMERIS_TYPE":0,"CLASSIFICATION_TYPE":"U","NORAD_CAT_ID":44747,"ELEMENT_SET_NO":999,"REV_AT_EPOCH":34086,"BSTAR":0.00046974201,"MEAN_MOTION_DOT":0.00023447,"MEAN_MOTION_DDOT":0},{"OBJECT_NAME":"STARLINK-1043","OBJECT_ID":"2019-074AM","EPOCH":"2026-01-09T13:44:21.587712","MEAN_MOTION":15.47531936,"ECCENTRICITY":0.00014459,"INCLINATION":53.0543,"RA_OF_ASC_NODE":118.6234,"ARG_OF_PERICENTER":266.4821,"MEAN_ANOMALY":93.6021,"EPHEMERIS_TYPE":0,"CLASSIFICATION_TYPE":"U","NORAD_CAT_ID":44748,"ELEMENT_SET_NO":999,"REV_AT_EPOCH":33947,"BSTAR":0.00049424782,"MEAN_MOTION_DOT":0.00025479,"MEAN_MOTION_DDOT":0},{"OBJECT_NAME":"STARLINK-1046","OBJECT_ID":"2019-074AQ","EPOCH":"2026-01-09T22:00:01.998720","MEAN_MOTION":15.34587302,"ECCENTRICITY":0.000136,"INCLINATION":53.054,"RA_OF_ASC_NODE":128.9112,"ARG_OF_PERICENTER":100.9316,"MEAN_ANOMALY":331.2185,"EPHEMERIS_TYPE":0,"CLASSIFICATION_TYPE":"U","NORAD_CAT_ID":44751,"ELEMENT_SET_NO":999,"REV_AT_EPOCH":577,"BSTAR":0.04622,"MEAN_MOTION_DOT":0.01742516,"MEAN_MOTION_DDOT":0},{"OBJECT_NAME":"STARLINK-1047","OBJECT_ID":"2019-074AR","EPOCH":"2026-01-09T10:48:14.744160","MEAN_MOTION":15.31083493,"ECCENTRICITY":0.00038708,"INCLINATION":53.0709,"RA_OF_ASC_NODE":62.432,"ARG_OF_PERICENTER":47.2826,"MEAN_ANOMALY":312.8499,"EPHEMERIS_TYPE":0,"CLASSIFICATION_TYPE":"U","NORAD_CAT_ID":44752,"ELEMENT_SET_NO":999,"REV_AT_EPOCH":34026,"BSTAR":0.00031931162,"MEAN_MOTION_DOT":9.37e-5,"MEAN_MOTION_DDOT":0},{"OBJECT_NAME":"STARLINK-1048","OBJECT_ID":"2019-074AS","EPOCH":"2026-01-09T22:00:01.998720","MEAN_MOTION":15.29448369,"ECCENTRICITY":0.0001644,"INCLINATION":53.0542,"RA_OF_ASC_NODE":89.3325,"ARG_OF_PERICENTER":98.5968,"MEAN_ANOMALY":335.9488,"EPHEMERIS_TYPE":0,"CLASSIFICATION_TYPE":"U","NORAD_CAT_ID":44753,"ELEMENT_SET_NO":999,"REV_AT_EPOCH":583,"BSTAR":0.054884,"MEAN_MOTION_DOT":0.01766435,"MEAN_MOTION_DDOT":0},{"OBJECT_NAME":"STARLINK-1053","OBJECT_ID":"2019-074AX","EPOCH":"2026-01-09T07:06:15.875712","MEAN_MOTION":15.72263786,"ECCENTRICITY":0.00032152,"INCLINATION":53.0381,"RA_OF_ASC_NODE":21.7524,"ARG_OF_PERICENTER":42.7457,"MEAN_ANOMALY":317.381,"EPHEMERIS_TYPE":0,"CLASSIFICATION_TYPE":"U","NORAD_CAT_ID":44758,"ELEMENT_SET_NO":999,"REV_AT_EPOCH":34081,"BSTAR":0.00077086188,"MEAN_MOTION_DOT":0.00104685,"MEAN_MOTION_DDOT":0},{"OBJECT_NAME":"STARLINK-1060","OBJECT_ID":"2019-074BE","EPOCH":"2026-01-09T22:00:01.998720","MEAN_MOTION":15.87568977,"ECCENTRICITY":0.0003714,"INCLINATION":53.0428,"RA_OF_ASC_NODE":60.8707,"ARG_OF_PERICENTER":324.6366,"MEAN_ANOMALY":353.1971,"EPHEMERIS_TYPE":0,"CLASSIFICATION_TYPE":"U","NORAD_CAT_ID":44765,"ELEMENT_SET_NO":999,"REV_AT_EPOCH":604,"BSTAR":0.00083711,"MEAN_MOTION_DOT":0.00232851,"MEAN_MOTION_DDOT":0},{"OBJECT_NAME":"STARLINK-1063","OBJECT_ID":"2019-074BH","EPOCH":"2026-01-09T15:23:42.086112","MEAN_MOTION":15.06391004,"ECCENTRICITY":0.0001345,"INCLINATION":53.0547,"RA_OF_ASC_NODE":131.6985,"ARG_OF_PERICENTER":92.4349,"MEAN_ANOMALY":267.6794,"EPHEMERIS_TYPE":0,"CLASSIFICATION_TYPE":"U","NORAD_CAT_ID":44768,"ELEMENT_SET_NO":999,"REV_AT_EPOCH":33930,"BSTAR":1.2930787e-5,"MEAN_MOTION_DOT":-8.9e-7,"MEAN_MOTION_DDOT":0}]
