STARLINK-1008           
1 44714U 19074B   26009.52350070  .00000023  00000+0  20413-4 0  9998
2 44714  53.0543  92.2276 0001405  92.0207 268.0943 15.06404796339830
STARLINK-1012           
1 44718U 19074F   26009.43504485  .00000717  00000+0  67042-4 0  9992
2 44718  53.0553  92.6233 0001469  86.4631 273.6526 15.06394504339812
STARLINK-1017           
1 44723U 19074L   26009.49734383  .00024399  00000+0  11400-2 0  9993
2 44723  53.0511  83.5581 0002066 147.0107 213.1017 15.19686096339956
STARLINK-1019           
1 44724U 19074M   26009.43198095  .00128457  00000+0  13758-2 0  9990
2 44724  53.0489  70.6777 0007164 343.3536  16.7241 15.62928532340125
STARLINK-1020           
1 44725U 19074N   26009.56957829 -.00000401  00000+0 -80438-5 0  9995
2 44725  53.0551 112.0205 0001204  85.9251 274.1876 15.06399547339550
STARLINK-1031           
1 44736U 19074Z   26009.91668980  .00150830  00000+0  13519-2 0  9996
2 44736  53.0472  54.3514 0003231  22.7345 173.0942 15.67343377  5941
STARLINK-1036           
1 44741U 19074AE  26009.91668980  .01675341  00000+0  58537-1 0  9990
2 44741  53.0535 109.6644 0001262  61.8930 271.7236 15.25746493  5730
STARLINK-1039           
1 44744U 19074AH  26009.60027425  .00044475  00000+0  22269-2 0  9993
2 44744  53.0508 125.6458 0002587  50.3075 309.8146 15.16979369339371
STARLINK-1042           
1 44747U 19074AL  26009.26384001  .00023447  00000+0  46974-3 0  9990
2 44747  53.0465  19.2155 0003002  20.7950 339.3178 15.46642284340869
STARLINK-1043           
1 44748U 19074AM  26009.57247208  .00025479  00000+0  49425-3 0  9993
2 44748  53.0543 118.6234 0001445 266.4821  93.6021 15.47531936339478
STARLINK-1046           
1 44751U 19074AQ  26009.91668980  .01742516  00000+0  46220-1 0  9996
2 44751  53.0540 128.9112 0001360 100.9316 331.2185 15.34587302  5774
STARLINK-1047           
1 44752U 19074AR  26009.45017065  .00009370  00000+0  31931-3 0  9996
2 44752  53.0709  62.4320 0003870  47.2826 312.8499 15.31083493340260
STARLINK-1048           
1 44753U 19074AS  26009.91668980  .01766435  00000+0  54884-1 0  9999
2 44753  53.0542  89.3325 0001644  98.5968 335.9488 15.29448369  5831
STARLINK-1053           
1 44758U 19074AX  26009.29601708  .00104685  00000+0  77086-3 0  9993
2 44758  53.0381  21.7524 0003215  42.7457 317.3810 15.72263786340817
STARLINK-1060           
1 44765U 19074BE  26009.91668980  .00232851  00000+0  83711-3 0  9994
2 44765  53.0428  60.8707 0003714 324.6366 353.1971 15.87568977  6045
STARLINK-1063           
1 44768U 19074BH  26009.64145933 -.00000089  00000+0  12931-4 0  9999
2 44768  53.0547 131.6985 0001345  92.4349 267.6794 15.06391004339300
